OBJECT_NAME,OBJECT_ID,EPOCH,MEAN_MOTION,ECCENTRICITY,INCLINATION,RA_OF_ASC_NODE,ARG_OF_PERICENTER,MEAN_ANOMALY,EPHEMERIS_TYPE,CLASSIFICATION_TYPE,NORAD_CAT_ID,ELEMENT_SET_NO,REV_AT_EPOCH,BSTAR,MEAN_MOTION_DOT,MEAN_MOTION_DDOT
COSMOS 2534 (758),2019-030A,2026-07-05T23:56:57.548256,2.13102259,.001353,64.3704,191.9829,275.0373,255.0429,0,U,44299,999,5532,0,.109E-5,0
BEIDOU-3 IGSO-2 (C39),2019-035A,2026-07-06T19:29:51.622656,1.00260595,.003967,55.2502,158.6905,216.4592,321.0694,0,U,44337,999,2586,0,-.75E-6,0
GPS BIII-2  (PRN 18),2019-056A,2026-07-06T20:17:39.541056,2.00570005,.006306,55.6268,330.3626,197.9974,344.1800,0,U,44506,999,5046,0,-.7E-6,0
BEIDOU-3 M24 (C46),2019-061A,2026-07-06T13:44:48.103872,1.86229381,.0008562,54.3973,182.0739,359.0246,0.9793,0,U,44542,999,4615,0,.115E-5,0
BEIDOU-3 M23 (C45),2019-061B,2026-07-06T06:34:35.386752,1.86227560,.00058641,54.3960,182.0526,339.2587,91.9188,0,U,44543,999,4615,0,.112E-5,0
EUTELSAT 5 WEST B (EGNOS/PRN 121),2019-067A,2026-07-06T20:36:46.899360,1.00271387,.0003196,0.0657,338.9665,127.6580,122.4022,0,U,44624,999,2463,0,-.27E-6,0
BEIDOU-3 M22 (C44),2019-078A,2026-07-05T08:08:09.837600,1.86227646,.00059141,53.9186,299.1896,49.8831,310.1966,0,U,44793,999,4498,0,-.58E-6,0
BEIDOU-3 M21 (C43),2019-078B,2026-07-05T11:29:35.042784,1.86228113,.0003864,53.8912,299.1453,48.4464,311.6147,0,U,44794,999,4499,0,-.58E-6,0
COSMOS 2544 (759),2019-088A,2026-07-02T12:21:34.940736,2.13103168,.00126282,65.5733,73.2191,256.5667,103.3590,0,U,44850,999,5104,0,-.8E-7,0
BEIDOU-3 M19 (C41),2019-090A,2026-07-06T12:42:47.838240,1.86231747,.00171156,56.5750,62.1521,297.4119,244.6578,0,U,44864,999,4459,0,-.41E-6,0
BEIDOU-3 M20 (C42),2019-090B,2026-07-06T09:31:16.788576,1.86231645,.00149716,56.5764,62.1912,312.1659,230.3203,0,U,44865,999,4457,0,-.41E-6,0
BEIDOU-3 G2 (C60),2020-017A,2026-07-06T21:01:08.262912,1.00270817,.0002459,2.9014,47.6135,51.8682,220.7363,0,U,45344,999,2345,0,-.127E-5,0
COSMOS 2545 (760),2020-018A,2026-07-06T11:08:10.591008,2.13102810,.00090766,64.3426,311.7416,229.9592,129.9755,0,U,45358,999,4907,0,-.47E-6,0
BEIDOU-3 G3 (C61),2020-040A,2026-07-06T19:27:06.887232,1.00269061,.000217,2.4924,67.4782,334.6376,284.9927,0,U,45807,999,2226,0,-.34E-5,0
GPS BIII-3  (PRN 23),2020-041A,2026-07-06T04:19:38.517024,2.00558250,.0064724,56.6823,28.2076,204.5515,154.8185,0,U,45854,999,4441,0,-.55E-6,0
GALAXY 30 (WAAS/PRN 135),2020-056C,2026-07-06T18:19:48.355968,1.00270907,.0002186,0.0206,38.7570,67.2773,328.6685,0,U,46114,999,2148,0,.52E-6,0
COSMOS 2547 (705K),2020-075A,2026-07-06T15:41:18.199104,2.13100180,.0009443,64.6011,191.8258,239.8670,120.0683,0,U,46805,999,4432,0,.115E-5,0
GPS BIII-4  (PRN 14),2020-078A,2026-07-06T15:43:33.223296,2.00564948,.0074292,53.9784,209.9892,207.6007,111.6968,0,U,46826,999,4189,0,.93E-6,0
GPS BIII-5  (PRN 11),2021-054A,2026-07-05T23:18:59.421312,2.00567861,.0026142,55.1649,331.7056,228.4455,143.5040,0,U,48859,999,3713,0,-.7E-6,0
QZS-1R (QZSS/PRN 196),2021-096A,2026-07-05T14:25:33.375072,1.00249302,.07555114,37.4964,79.3119,272.0883,281.1819,0,U,49336,999,1719,0,-.258E-5,0
GSAT0223 (GALILEO 27),2021-116A,2026-07-03T10:06:08.269056,1.70476367,.0001787,57.1558,341.2375,186.7549,176.0990,0,U,49809,999,2846,0,-.75E-6,0
GSAT0224 (GALILEO 28),2021-116B,2026-07-03T19:40:34.453344,1.70476408,.0001573,57.1559,341.2257,171.0762,189.2294,0,U,49810,999,2849,0,-.74E-6,0
COSMOS 2557 (706K),2022-075A,2026-07-05T21:06:15.616224,2.13102489,.00105778,64.2867,313.8270,272.7453,87.1460,0,U,52984,999,3111,0,-.46E-6,0
COSMOS 2559 (707K),2022-130A,2026-07-06T04:02:20.154048,2.13101697,.0012939,64.2589,313.8996,180.0973,179.9152,0,U,54031,999,2909,0,-.47E-6,0
COSMOS 2564 (761),2022-161A,2026-07-06T11:32:13.784640,2.13102005,.0012255,64.7434,192.0712,225.0999,134.8296,0,U,54377,999,2804,0,.114E-5,0
GPS BIII-6  (PRN 28),2023-009A,2026-07-06T03:30:05.834304,2.00570238,.00062083,55.1244,147.7740,319.3269,217.0809,0,U,55268,999,2562,0,.77E-6,0
BEIDOU-3 G4 (C62),2023-066A,2026-07-06T07:36:57.282624,1.00266978,.00050564,0.4680,336.2679,178.9368,23.3032,0,U,56564,999,1158,0,-.268E-5,0
NVS-01 (IRNSS-1J),2023-076A,2026-07-06T17:49:51.228192,1.00269341,.0003213,2.1228,243.4778,7.6961,70.5707,0,U,56759,999,1131,0,-.32E-5,0
COSMOS 2569 (703K),2023-114A,2026-07-06T11:49:57.958752,2.13103771,.0009975,65.3129,71.9697,296.4078,63.5545,0,U,57517,999,2267,0,-.17E-6,0
BEIDOU-3 M28 (C50),2023-207A,2026-07-05T00:27:15.743808,1.86229766,.0002706,55.7683,61.7017,358.4998,1.5667,0,U,58654,999,1717,0,-.39E-6,0
BEIDOU-3 M26 (C48),2023-207B,2026-07-05T08:28:52.432032,1.86229736,.0002358,55.7709,61.6769,323.5408,36.5098,0,U,58655,999,1716,0,-.4E-6,0
